OBJECT_NAME,OBJECT_ID,EPOCH,MEAN_MOTION,ECCENTRICITY,INCLINATION,RA_OF_ASC_NODE,ARG_OF_PERICENTER,MEAN_ANOMALY,EPHEMERIS_TYPE,CLASSIFICATION_TYPE,NORAD_CAT_ID,ELEMENT_SET_NO,REV_AT_EPOCH,BSTAR,MEAN_MOTION_DOT,MEAN_MOTION_DDOT
LEMUR-2-ROUNDTRIPPER,2025-009DG,2026-06-26T17:47:58.928064,15.03939479,.0005545,97.7249,260.4080,108.1991,251.9838,0,U,62711,999,7906,.60299E-3,.8263E-4,0
LEMUR-2-MYNAMEISJEFF,2025-009DH,2026-06-26T17:45:40.226688,15.03936471,.0003965,97.7293,260.7932,134.1431,226.0121,0,U,62712,999,7906,.57222E-3,.7836E-4,0
LEMUR-2-LEIA-PHILIP,2025-052AN,2026-06-26T16:37:39.933120,14.97336142,.000369,97.6820,69.4835,178.1949,181.9287,0,U,63246,999,7009,.11007E-3,.122E-4,0
LEMUR-2-LIA-MARTIN,2025-052AQ,2026-06-26T16:40:19.890624,14.97869805,.000381,97.6876,69.9742,140.1436,220.0066,0,U,63248,999,7010,.39648E-3,.4609E-4,0
LEMUR-2-DELOITTE-1,2025-052BB,2026-06-26T16:08:07.222848,14.97668462,.0003153,97.6926,70.2830,76.8676,283.2898,0,U,63259,999,7011,.27978E-3,.3218E-4,0
LEMUR-2-EMERSONROSE,2025-052BD,2026-06-26T16:55:05.400768,14.99143154,.0002054,97.6879,70.8900,77.9253,282.2200,0,U,63261,999,7016,.34736E-3,.4166E-4,0
LEMUR-2-MARACHE-FRAN,2025-052BE,2026-06-25T22:33:36.277344,15.00173475,.00045654,97.6926,70.4715,347.4009,12.7100,0,U,63262,999,7007,.42450805E-3,.5246E-4,0
LEMUR-2-THEFALCONER,2025-052BG,2026-06-26T16:48:08.403264,14.97442412,.0001542,97.6850,69.9192,16.3648,343.7623,0,U,63264,999,7011,.32522E-3,.3728E-4,0
LEMUR-2-UNTITLED-SC,2025-061A,2026-06-26T05:05:52.126368,15.13531866,.00173095,97.5637,152.5085,230.4277,129.5426,0,U,63351,999,6895,.23052981E-3,.4078E-4,0
LEMUR-2-ESPERANZA,2025-061B,2026-06-26T15:38:31.740000,15.13625973,.0016944,97.5641,153.0402,227.9658,132.0132,0,U,63352,999,6902,.18547E-3,.3275E-4,0
LEMUR-2-KREMPEL-BRO2,2025-061C,2026-06-26T17:48:36.609696,15.14065520,.0018049,97.5688,153.6756,219.7361,140.2549,0,U,63353,999,6905,.22141E-3,.3975E-4,0
LEMUR-2-THERMORAPTOR,2025-061D,2026-06-26T11:01:24.371040,15.14144668,.0017758,97.5695,153.4720,219.4856,140.5083,0,U,63354,999,6901,.19786E-3,.3552E-4,0
LEMUR-2-NEUROSPICY,2025-061E,2026-06-26T11:54:45.177408,15.14259614,.0015532,97.5620,153.1274,222.7299,137.2726,0,U,63355,999,6902,.20635E-3,.3716E-4,0
LEMUR-2-TILLINFINITY,2025-061F,2026-06-26T15:50:36.133152,15.14847160,.0017067,97.5605,153.5875,209.5455,150.4814,0,U,63356,999,6907,.19722E-3,.3611E-4,0
LEMUR-2-KREMPEL-BRO1,2025-061G,2026-06-26T10:28:45.220800,15.14651002,.0017663,97.5607,153.2787,212.0024,148.0136,0,U,63357,999,6903,.20707E-3,.3775E-4,0
LEMUR-2-LANGER2SPACE,2025-061H,2026-06-26T11:09:35.002080,15.14347612,.0015461,97.5612,153.1172,220.8781,139.1292,0,U,63358,999,6902,.20902E-3,.3775E-4,0
LEMUR-2-BALTO,2025-052BH,2026-06-26T15:48:08.674272,15.00186418,.0006598,97.6923,71.1573,32.7587,327.4044,0,U,63395,999,7018,.48749E-3,.6037E-4,0
LEMUR-2-KRISH,2025-135AK,2026-06-26T13:41:45.632256,14.96283594,.000112,97.7747,292.3826,101.0260,259.1087,0,U,64561,999,5532,.43524E-3,.486E-4,0
LEMUR-2-HUBBLE-4,2025-135AP,2026-06-25T05:52:17.732352,14.93362478,.0002848,97.7646,290.0421,296.9282,63.1646,0,U,64565,999,5507,.13793E-3,.139E-4,0
LEMUR-2-SEJONG-2,2025-135BL,2026-06-26T17:33:06.269184,14.96769348,.0002818,97.7693,292.6864,301.4087,58.6859,0,U,64586,999,5537,.45303E-3,.5125E-4,0
LEMUR-2-HUBBLE-5,2025-135BT,2026-06-26T14:24:09.349344,14.94163036,.0004302,97.7725,292.0415,318.1203,41.9687,0,U,64840,999,5531,.18324E-3,.1904E-4,0
LEMUR-2-KARENDARRELL,2025-135BU,2026-06-26T14:09:08.942112,15.00241970,.00105,97.7681,293.7814,166.6421,193.5082,0,U,64841,999,5542,.69143E-3,.8607E-4,0
LEMUR-2-LUCILLE-ROSE,2025-135BV,2026-06-26T07:06:47.613024,15.00260284,.0012236,97.7748,293.5183,249.5106,110.4804,0,U,65403,999,5000,.64143E-3,.7987E-4,0
LEMUR-2-AFFIE-WAUWIE,2025-248C,2026-06-26T16:05:37.033728,15.27531092,.0007709,45.3937,63.5971,149.2516,210.8826,0,U,66295,999,3604,.84292E-3,.22909E-3,0
LEMUR-2-DEANANDMAEVE,2025-276N,2026-06-26T17:31:04.721664,15.19843173,.0004803,97.4217,251.0473,339.5015,20.6026,0,U,66678,999,3186,.31107E-3,.6604E-4,0
LEMUR-2-STAS-GORBUK,2025-276W,2026-06-26T16:20:22.970688,15.19474149,.0004112,97.4249,251.0532,340.4981,19.6096,0,U,66686,999,3185,.28833E-3,.605E-4,0
LEMUR-2-TEODOR,2025-276DG,2026-06-26T17:16:45.808032,15.21147471,.0002383,97.4155,251.3401,107.2798,252.8699,0,U,66768,999,3189,.2531E-3,.5568E-4,0
LEMUR-2-LAILA,2025-276DQ,2026-06-26T16:37:12.132192,15.21370052,.0002674,97.4178,251.4397,122.2435,237.9060,0,U,66776,999,3189,.27936E-3,.6194E-4,0
LEMUR-2-CELIJO-SB-PK,2025-276DW,2026-06-26T17:01:07.847904,15.00085304,.0008158,97.5234,248.1738,109.6648,250.5457,0,U,66781,999,2405,.50213E-3,.6207E-4,0
LEMUR-2-FINNIAN,2025-276DX,2026-06-26T03:36:06.822144,15.00460441,.00086265,97.5321,247.8587,63.2247,296.9859,0,U,66782,999,2134,.36599326E-3,.4553E-4,0
